NORAD_CAT_ID,OBJECT_NAME,OBJECT_TYPE,EPOCH,MEAN_MOTION,ECCENTRICITY,INCLINATION,RA_OF_ASC_NODE,ARG_OF_PERICENTER,MEAN_ANOMALY,BSTAR,MEAN_MOTION_DOT,MEAN_MOTION_DDOT,TLE_LINE0,TLE_LINE1,TLE_LINE2,SEMIMAJOR_AXIS,PERIOD,APOGEE,PERIGEE,DECAYED
51754.0,STARLINK-3457,PAYLOAD,2023-11-30 11:32:31,15.08842775,0.000167,53.2189,75.8291,66.1237,293.993,-7.1924e-05,-1.433e-05,0.0,0 STARLINK-3457,1 51754U 22016AS  23334.48091675 -.00001433  00000-0 -71924-4 0  9998,2 51754  53.2189  75.8291 0001670  66.1237 293.9930 15.08842775 99496,6917.872,95.437,540.892,538.582,0.0
51754.0,STARLINK-3457,PAYLOAD,2023-11-30 14:43:17,15.08853016,0.0001729,53.2191,75.2366,58.9108,301.2053,0.00011563,1.553e-05,0.0,0 STARLINK-3457,1 51754U 22016AS  23334.61339345  .00001553  00000-0  11563-3 0  9995,2 51754  53.2191  75.2366 0001729  58.9108 301.2053 15.08853016 99519,6917.841,95.437,540.902,538.51,0.0
51754.0,STARLINK-3457,PAYLOAD,2023-12-01 11:23:18,15.08841315,0.0002179,53.2182,71.3776,53.1898,306.9294,9.798e-05,1.272e-05,0.0,0 STARLINK-3457,1 51754U 22016AS  23335.47452363  .00001272  00000-0  97980-4 0  9992,2 51754  53.2182  71.3776 0002179  53.1898 306.9294 15.08841315 99646,6917.876,95.437,541.249,538.234,0.0
51754.0,STARLINK-3457,PAYLOAD,2023-12-01 12:58:41,15.08846734,0.0002125,53.2174,71.0817,53.4375,306.6812,6.3758e-05,7.27e-06,0.0,0 STARLINK-3457,1 51754U 22016AS  23335.54075934  .00000727  00000-0  63758-4 0  9995,2 51754  53.2174  71.0817 0002125  53.4375 306.6812 15.08846734 98534,6917.86,95.437,541.195,538.255,0.0
51754.0,STARLINK-3457,PAYLOAD,2023-12-02 12:49:29,15.08809873,0.0001668,53.2178,66.6168,68.4437,291.6733,-0.00044355,-7.334e-05,0.0,0 STARLINK-3457,1 51754U 22016AS  23336.53437353 -.00007334  00000-0 -44355-3 0  9996,2 51754  53.2178  66.6168 0001668  68.4437 291.6733 15.08809873 98687,6917.972,95.439,540.991,538.684,0.0
51754.0,STARLINK-3457,PAYLOAD,2023-12-03 11:04:54,15.08816088,0.0001285,53.2167,62.4542,81.2,278.9138,-0.00027537,-4.665e-05,0.0,0 STARLINK-3457,1 51754U 22016AS  23337.46174464 -.00004665  00000-0 -27537-3 0  9997,2 51754  53.2167  62.4542 0001285  81.2000 278.9138 15.08816088 99942,6917.953,95.439,540.707,538.93,0.0
51754.0,STARLINK-3457,PAYLOAD,2023-12-04 10:55:41,15.088367,0.0001293,53.2184,57.9902,90.8651,269.249,0.00043907,6.706e-05,0.0,0 STARLINK-3457,1 51754U 22016AS  23338.45534216  .00006706  00000-0  43907-3 0  9997,2 51754  53.2184  57.9902 0001293  90.8651 269.2490 15.08836700100093,6917.89,95.438,540.65,538.861,0.0
51754.0,STARLINK-3457,PAYLOAD,2023-12-04 12:31:04,15.08843762,0.0001276,53.2182,57.6908,97.8233,262.2904,0.00052117,8.017e-05,0.0,0 STARLINK-3457,1 51754U 22016AS  23338.52157892  .00008017  00000-0  52117-3 0  9996,2 51754  53.2182  57.6908 0001276  97.8233 262.2904 15.08843762 98981,6917.869,95.437,540.617,538.851,0.0
51754.0,STARLINK-3457,PAYLOAD,2023-12-05 12:21:50,15.08847766,0.0001298,53.2194,53.2315,101.8509,258.2629,0.0003618,5.476e-05,0.0,0 STARLINK-3457,1 51754U 22016AS  23339.51517038  .00005476  00000-0  36180-3 0  9996,2 51754  53.2194  53.2315 0001298 101.8509 258.2629 15.08847766 99139,6917.857,95.437,540.62,538.824,0.0
51754.0,STARLINK-3457,PAYLOAD,2023-12-06 04:15:42,15.0884979,0.0001171,53.2203,50.2611,99.6392,260.4733,0.0001276,1.744e-05,0.0,0 STARLINK-3457,1 51754U 22016AS  23340.17757105  .00001744  00000-0  12760-3 0  9993,2 51754  53.2203  50.2611 0001171  99.6392 260.4733 15.08849790100357,6917.85,95.437,540.526,538.905,0.0
51754.0,STARLINK-3457,PAYLOAD,2023-12-06 12:12:37,15.08850916,0.0001202,53.2192,48.7713,92.2728,267.8402,-3.2294e-05,-8.02e-06,0.0,0 STARLINK-3457,1 51754U 22016AS  23340.50877043 -.00000802  00000-0 -32294-4 0  9995,2 51754  53.2192  48.7713 0001202  92.2728 267.8402 15.08850916 99281,6917.847,95.437,540.544,538.88,0.0
51754.0,STARLINK-3457,PAYLOAD,2023-12-07 12:03:24,15.08846123,0.0001316,53.2192,44.3116,70.5607,289.5528,-0.00010788,-2.005e-05,0.0,0 STARLINK-3457,1 51754U 22016AS  23341.50237253 -.00002005  00000-0 -10788-3 0  9999,2 51754  53.2192  44.3116 0001316  70.5607 289.5528 15.08846123100559,6917.862,95.437,540.637,538.816,0.0
51754.0,STARLINK-3457,PAYLOAD,2023-12-07 13:38:47,15.08847487,0.0001631,53.2192,44.0087,60.5753,299.5402,-7.3395e-05,-1.456e-05,0.0,0 STARLINK-3457,1 51754U 22016AS  23341.56861044 -.00001456  00000-0 -73395-4 0  9999,2 51754  53.2192  44.0087 0001631  60.5753 299.5402 15.08847487 99445,6917.858,95.437,540.851,538.594,0.0
51754.0,STARLINK-3457,PAYLOAD,2023-12-08 10:18:51,15.08738388,0.0002217,53.2186,40.1469,63.648,296.474,0.0014946,0.00023513,0.0,0 STARLINK-3457,1 51754U 22016AS  23342.42975751  .00023513  00000-0  14946-2 0  9997,2 51754  53.2186  40.1469 0002217  63.6480 296.4740 15.08738388100691,6918.191,95.444,541.59,538.522,0.0
51754.0,STARLINK-3457,PAYLOAD,2023-12-09 10:09:35,15.08842511,0.0001297,53.2178,35.6846,73.7525,286.361,5.0673e-05,5.19e-06,0.0,0 STARLINK-3457,1 51754U 22016AS  23343.42332780  .00000519  00000-0  50673-4 0  9997,2 51754  53.2178  35.6846 0001297  73.7525 286.3610 15.08842511100844,6917.873,95.437,540.635,538.84,0.0
51754.0,STARLINK-3457,PAYLOAD,2023-12-09 13:20:21,15.08842784,0.0001295,53.2177,35.091,75.2687,284.8448,4.9163e-05,4.95e-06,0.0,0 STARLINK-3457,1 51754U 22016AS  23343.55580733  .00000495  00000-0  49163-4 0  9999,2 51754  53.2177  35.0910 0001295  75.2687 284.8448 15.08842784 99743,6917.872,95.437,540.633,538.841,0.0
51754.0,STARLINK-3457,PAYLOAD,2023-12-10 03:38:50,15.08837027,0.0001402,53.2188,32.413,97.6395,262.4756,-1.9224e-05,-5.94e-06,0.0,0 STARLINK-3457,1 51754U 22016AS  23344.15197222 -.00000594  00000-0 -19224-4 0  9990,2 51754  53.2188  32.4130 0001402  97.6395 262.4756 15.08837027100958,6917.889,95.438,540.724,538.785,0.0
51754.0,STARLINK-3457,PAYLOAD,2023-12-11 09:51:09,15.0883968,0.00014,53.2184,26.7631,90.927,269.1882,4.6987e-05,4.6e-06,0.0,0 STARLINK-3457,1 51754U 22016AS  23345.41052930  .00000460  00000-0  46987-4 0  9992,2 51754  53.2184  26.7631 0001400  90.9270 269.1882 15.08839680101145,6917.881,95.438,540.715,538.778,0.0
51754.0,STARLINK-3457,PAYLOAD,2023-12-12 09:41:56,15.08838217,0.0001507,53.2185,22.3084,101.5073,258.6089,5.5435e-05,5.94e-06,0.0,0 STARLINK-3457,1 51754U 22016AS  23346.40413179  .00000594  00000-0  55435-4 0  9994,2 51754  53.2185  22.3084 0001507 101.5073 258.6089 15.08838217100177,6917.886,95.438,540.793,538.708,0.0
51754.0,STARLINK-3457,PAYLOAD,2023-12-13 07:57:21,15.08837451,0.0001561,53.2188,18.1482,106.5184,253.598,2.7398e-05,1.48e-06,0.0,0 STARLINK-3457,1 51754U 22016AS  23347.33149485  .00000148  00000-0  27398-4 0  9995,2 51754  53.2188  18.1482 0001561 106.5184 253.5980 15.08837451101436,6917.888,95.438,540.833,538.673,0.0
51754.0,STARLINK-3457,PAYLOAD,2023-12-14 09:23:31,15.08843191,0.0001481,53.2184,13.3859,87.4248,272.6914,7.4609e-05,9e-06,0.0,0 STARLINK-3457,1 51754U 22016AS  23348.39133183  .00000900  00000-0  74609-4 0  9993,2 51754  53.2184  13.3859 0001481  87.4248 272.6914 15.08843191101590,6917.871,95.437,540.76,538.711,0.0
51754.0,STARLINK-3457,PAYLOAD,2023-12-15 09:14:18,15.08840189,0.00021,53.2201,8.9251,59.6421,300.4779,5.9241e-05,6.55e-06,0.0,0 STARLINK-3457,1 51754U 22016AS  23349.38493753  .00000655  00000-0  59241-4 0  9997,2 51754  53.2201   8.9251 0002100  59.6421 300.4779 15.08840189101749,6917.88,95.438,541.198,538.292,0.0
51754.0,STARLINK-3457,PAYLOAD,2023-12-16 07:29:42,15.08839335,0.0002336,53.2204,4.7615,57.9677,302.1542,7.2196e-06,-1.73e-06,0.0,0 STARLINK-3457,1 51754U 22016AS  23350.31230191 -.00000173  00000-0  72196-5 0  9998,2 51754  53.2204   4.7615 0002336  57.9677 302.1542 15.08839335100764,6917.882,95.438,541.363,538.131,0.0
51754.0,STARLINK-3457,PAYLOAD,2023-12-17 04:09:43,15.08841454,0.0001512,53.2196,0.9018,88.8876,271.229,-9.0597e-06,-4.32e-06,0.0,0 STARLINK-3457,1 51754U 22016AS  23351.17341944 -.00000432  00000-0 -90597-5 0  9996,2 51754  53.2196   0.9018 0001512  88.8876 271.2290 15.08841454102019,6917.876,95.437,540.787,538.695,0.0
51754.0,STARLINK-3457,PAYLOAD,2023-12-17 07:20:29,15.08844941,0.0001536,53.2184,0.307,84.3563,275.7604,-3.4021e-06,-3.42e-06,0.0,0 STARLINK-3457,1 51754U 22016AS  23351.30589747 -.00000342  00000-0 -34021-5 0  9996,2 51754  53.2184   0.3070 0001536  84.3563 275.7604 15.08844941100917,6917.865,95.437,540.793,538.668,0.0
51754.0,STARLINK-3457,PAYLOAD,2023-12-18 07:11:15,15.08849728,0.0001707,53.218,355.8478,96.7123,263.4063,0.00014113,1.959e-05,0.0,0 STARLINK-3457,1 51754U 22016AS  23352.29948896  .00001959  00000-0  14113-3 0  9990,2 51754  53.2180 355.8478 0001707  96.7123 263.4063 15.08849728102184,6917.851,95.437,540.897,538.535,0.0
51754.0,STARLINK-3457,PAYLOAD,2023-12-19 03:51:17,15.08833826,0.0001577,53.2188,351.979,111.33,248.7861,-8.676e-06,-4.26e-06,0.0,0 STARLINK-3457,1 51754U 22016AS  23353.16062426 -.00000426  00000-0 -86760-5 0  9992,2 51754  53.2188 351.9790 0001577 111.3300 248.7861 15.08833826102311,6917.899,95.438,540.855,538.673,0.0
51754.0,STARLINK-3457,PAYLOAD,2023-12-19 07:02:04,15.0883649,0.0001527,53.2185,351.3823,108.6866,251.4292,4.1462e-06,-2.22e-06,0.0,0 STARLINK-3457,1 51754U 22016AS  23353.29310295 -.00000222  00000-0  41462-5 0  9999,2 51754  53.2185 351.3823 0001527 108.6866 251.4292 15.08836490101217,6917.891,95.438,540.812,538.7,0.0
51754.0,STARLINK-3457,PAYLOAD,2023-12-20 06:52:52,15.0881783,0.0001962,53.2186,346.9236,139.2009,220.913,-0.00025539,-4.348e-05,0.0,0 STARLINK-3457,1 51754U 22016AS  23354.28672082 -.00004348  00000-0 -25539-3 0  9993,2 51754  53.2186 346.9236 0001962 139.2009 220.9130 15.08817830102487,6917.948,95.439,541.17,538.456,0.0
51754.0,STARLINK-3457,PAYLOAD,2023-12-21 03:32:51,15.088478,0.0001971,53.219,343.0576,137.3147,222.7999,3.1998e-05,2.21e-06,0.0,0 STARLINK-3457,1 51754U 22016AS  23355.14781997  .00000221  00000-0  31998-4 0  9996,2 51754  53.2190 343.0576 0001971 137.3147 222.7999 15.08847800102617,6917.857,95.437,541.085,538.358,0.0
